CCSDS_OMM_VERS = 2.0
CREATION_DATE  = 
ORIGINATOR     = 

OBJECT_NAME    = CORAL
OBJECT_ID      = 1998-067YA
CENTER_NAME    = EARTH
REF_FRAME      = TEME
TIME_SYSTEM    = UTC
MEAN_ELEMENT_THEORY = SGP/SGP4

EPOCH          = 2026-04-02T23:18:30.993120
MEAN_MOTION    = 15.58700862
ECCENTRICITY   = .0013373
INCLINATION    = 51.6286
RA_OF_ASC_NODE = 310.0532
ARG_OF_PERICENTER = 265.0050
MEAN_ANOMALY   = 94.9416

EPHEMERIS_TYPE = 0
CLASSIFICATION_TYPE = U
NORAD_CAT_ID   = 67684
ELEMENT_SET_NO = 999
REV_AT_EPOCH   = 857
BSTAR          = .18271479E-2
MEAN_MOTION_DOT = .146011E-2
MEAN_MOTION_DDOT = 0

CCSDS_OMM_VERS = 2.0
CREATION_DATE  = 
ORIGINATOR     = 

OBJECT_NAME    = GXIBA-1
OBJECT_ID      = 1998-067YB
CENTER_NAME    = EARTH
REF_FRAME      = TEME
TIME_SYSTEM    = UTC
MEAN_ELEMENT_THEORY = SGP/SGP4

EPOCH          = 2026-04-02T23:27:52.879104
MEAN_MOTION    = 15.54544320
ECCENTRICITY   = .00123409
INCLINATION    = 51.6304
RA_OF_ASC_NODE = 310.8473
ARG_OF_PERICENTER = 271.8778
MEAN_ANOMALY   = 88.0799

EPHEMERIS_TYPE = 0
CLASSIFICATION_TYPE = U
NORAD_CAT_ID   = 67685
ELEMENT_SET_NO = 999
REV_AT_EPOCH   = 856
BSTAR          = .10703359E-2
MEAN_MOTION_DOT = .72331E-3
MEAN_MOTION_DDOT = 0

CCSDS_OMM_VERS = 2.0
CREATION_DATE  = 
ORIGINATOR     = 

OBJECT_NAME    = UITMSAT-2
OBJECT_ID      = 1998-067YC
CENTER_NAME    = EARTH
REF_FRAME      = TEME
TIME_SYSTEM    = UTC
MEAN_ELEMENT_THEORY = SGP/SGP4

EPOCH          = 2026-04-02T15:19:28.045056
MEAN_MOTION    = 15.55557558
ECCENTRICITY   = .00093777
INCLINATION    = 51.6305
RA_OF_ASC_NODE = 312.3353
ARG_OF_PERICENTER = 244.7057
MEAN_ANOMALY   = 115.2963

EPHEMERIS_TYPE = 0
CLASSIFICATION_TYPE = U
NORAD_CAT_ID   = 67686
ELEMENT_SET_NO = 999
REV_AT_EPOCH   = 851
BSTAR          = .99291359E-3
MEAN_MOTION_DOT = .69503E-3
MEAN_MOTION_DDOT = 0

CCSDS_OMM_VERS = 2.0
CREATION_DATE  = 
ORIGINATOR     = 

OBJECT_NAME    = HMU-SAT2
OBJECT_ID      = 1998-067YD
CENTER_NAME    = EARTH
REF_FRAME      = TEME
TIME_SYSTEM    = UTC
MEAN_ELEMENT_THEORY = SGP/SGP4

EPOCH          = 2026-04-02T22:03:37.580544
MEAN_MOTION    = 15.54267047
ECCENTRICITY   = .00088786
INCLINATION    = 51.6311
RA_OF_ASC_NODE = 311.2095
ARG_OF_PERICENTER = 248.0698
MEAN_ANOMALY   = 111.9350

EPHEMERIS_TYPE = 0
CLASSIFICATION_TYPE = U
NORAD_CAT_ID   = 67687
ELEMENT_SET_NO = 999
REV_AT_EPOCH   = 847
BSTAR          = .10897704E-2
MEAN_MOTION_DOT = .72798E-3
MEAN_MOTION_DDOT = 0

CCSDS_OMM_VERS = 2.0
CREATION_DATE  = 
ORIGINATOR     = 

OBJECT_NAME    = LEOPARD
OBJECT_ID      = 1998-067YE
CENTER_NAME    = EARTH
REF_FRAME      = TEME
TIME_SYSTEM    = UTC
MEAN_ELEMENT_THEORY = SGP/SGP4

EPOCH          = 2026-04-03T00:46:20.051328
MEAN_MOTION    = 15.55151529
ECCENTRICITY   = .00091814
INCLINATION    = 51.6305
RA_OF_ASC_NODE = 310.4638
ARG_OF_PERICENTER = 245.8702
MEAN_ANOMALY   = 114.1330

EPHEMERIS_TYPE = 0
CLASSIFICATION_TYPE = U
NORAD_CAT_ID   = 67688
ELEMENT_SET_NO = 999
REV_AT_EPOCH   = 849
BSTAR          = .12198426E-2
MEAN_MOTION_DOT = .84376E-3
MEAN_MOTION_DDOT = 0

CCSDS_OMM_VERS = 2.0
CREATION_DATE  = 
ORIGINATOR     = 

OBJECT_NAME    = CREW DRAGON 12
OBJECT_ID      = 2026-031A
CENTER_NAME    = EARTH
REF_FRAME      = TEME
TIME_SYSTEM    = UTC
MEAN_ELEMENT_THEORY = SGP/SGP4

EPOCH          = 2026-04-03T02:25:58.213344
MEAN_MOTION    = 15.48735493
ECCENTRICITY   = .00062367
INCLINATION    = 51.6327
RA_OF_ASC_NODE = 311.6710
ARG_OF_PERICENTER = 265.7481
MEAN_ANOMALY   = 94.2795

EPHEMERIS_TYPE = 0
CLASSIFICATION_TYPE = U
NORAD_CAT_ID   = 67796
ELEMENT_SET_NO = 999
REV_AT_EPOCH   = 56008
BSTAR          = .22784187E-3
MEAN_MOTION_DOT = .12012E-3
MEAN_MOTION_DDOT = 0

CCSDS_OMM_VERS = 2.0
CREATION_DATE  = 
ORIGINATOR     = 

OBJECT_NAME    = PROGRESS-MS 33
OBJECT_ID      = 2026-058A
CENTER_NAME    = EARTH
REF_FRAME      = TEME
TIME_SYSTEM    = UTC
MEAN_ELEMENT_THEORY = SGP/SGP4

EPOCH          = 2026-04-03T02:25:58.213344
MEAN_MOTION    = 15.48735493
ECCENTRICITY   = .00062367
INCLINATION    = 51.6327
RA_OF_ASC_NODE = 311.6710
ARG_OF_PERICENTER = 265.7481
MEAN_ANOMALY   = 94.2795

EPHEMERIS_TYPE = 0
CLASSIFICATION_TYPE = U
NORAD_CAT_ID   = 68319
ELEMENT_SET_NO = 999
REV_AT_EPOCH   = 125
BSTAR          = .22784187E-3
MEAN_MOTION_DOT = .12012E-3
MEAN_MOTION_DDOT = 0

